1 39227U 13042A   15258.52933196  .00001175  00000-0  88165-4 0  9998
2 39227  97.6027  82.6597 0001907 120.4156 317.2077 15.04540643113362
1 39227U 13042A   15258.80422601  .00001003  00000-0  75901-4 0  9997
2 39227  97.6027  82.9306 0002043 121.0905   4.5083 15.04539571113400
1 39227U 13042A   15259.20271444 -.00004820  00000-0 -34032-3 0  9990
2 39227  97.6029  83.3215 0002322 116.5380   5.9462 15.04509106113465
1 39227U 13042A   15259.52620917  .00000555  00000-0  43962-4 0  9990
2 39227  97.6031  83.6399 0002305 115.9241 317.5957 15.04515870113516
1 39227U 13042A   15259.80188476 -.00000166  00000-0 -75508-5 0  9992
2 39227  97.6033  83.9121 0002101 116.1507   9.6143 15.04528963113553
1 39227U 13042A   15260.20060147 -.00000712  00000-0 -46590-4 0  9997
2 39227  97.6032  84.3033 0002064 107.7564  16.1927 15.04524147113616
1 39227U 13042A   15260.33342742 -.00000955  00000-0 -63932-4 0  9993
2 39227  97.6034  84.4343 0002242 114.9379   7.9719 15.04521778113631
1 39227U 13042A   15260.65965346 -.00001273  00000-0 -86625-4 0  9997
2 39227  97.6032  84.7557 0002338 117.1508 331.5698 15.04518700113682
1 39227U 13042A   15260.79954801 -.00001401  00000-0 -95827-4 0  9993
2 39227  97.6031  84.8935 0002279 112.6214  13.3240 15.04517413113701
1 39227U 13042A   15261.52209227 -.00001674  00000-0 -11534-3 0  9994
2 39227  97.6030  85.6046 0002323 116.4243 320.5419 15.04513172113817
1 39227U 13042A   15261.79599237 -.00001767  00000-0 -12199-3 0  9997
2 39227  97.6029  85.8742 0002347 117.1120   2.4330 15.04511696113859
1 39227U 13042A   15262.19717541 -.00001887  00000-0 -13053-3 0  9995
2 39227  97.6029  86.2681 0002256 104.5372  26.5437 15.04509667113911
1 39227U 13042A   15262.52117933 -.00001870  00000-0 -12934-3 0  9990
2 39227  97.6029  86.5867 0002202 104.1624 340.7044 15.04508938113967
1 39227U 13042A   15262.79490293 -.00001807  00000-0 -12485-3 0  9993
2 39227  97.6028  86.8562 0002130 103.6280  22.8660 15.04508741114003
1 39227U 13042A   15263.19001447 -.00001609  00000-0 -11066-3 0  9991
2 39227  97.6031  87.2461 0002495 107.4046 357.7828 15.04509481114060
1 39227U 13042A   15263.51878058 -.00001454  00000-0 -99599-4 0  9993
2 39227  97.6032  87.5698 0002473 104.9560 339.7992 15.04509983114110
1 39227U 13042A   15263.79147207 -.00001250  00000-0 -85040-4 0  9998
2 39227  97.6031  87.8379 0002431 103.5441  17.2568 15.04511014114154
1 39227U 13042A   15264.51639565 -.00000588  00000-0 -37679-4 0  9990
2 39227  97.6030  88.5518 0002606 104.3714 340.3657 15.04515154114262
1 39227U 13042A   15264.85404870 -.00000139  00000-0 -56504-5 0  9997
2 39227  97.6035  88.8834 0002638 104.6266   7.7950 15.04518083114311
1 39227U 13042A   15265.18598521  .00000314  00000-0  26715-4 0  9994
2 39227  97.6029  89.2107 0002668 102.4972   6.6676 15.04521246114368
1 39227U 13042A   15265.32174975  .00000348  00000-0  29151-4 0  9997
2 39227  97.6029  89.3442 0002666 101.9173  22.1253 15.04521566114387
1 39227U 13042A   15265.85173411  .00000445  00000-0  36061-4 0  9995
2 39227  97.6029  89.8653 0002667 101.9476  10.8411 15.04522687114467
1 39227U 13042A   15266.23881523  .00000431  00000-0  35082-4 0  9995
2 39227  97.6029  90.2461 0002661 100.9630 307.0487 15.04522834114520
1 39227U 13042A   15266.57567567  .00000375  00000-0  31098-4 0  9991
2 39227  97.6030  90.5778 0002700 101.4368 329.9591 15.04522630114572
1 39227U 13042A   15266.84942052  .00000350  00000-0  29283-4 0  9993
2 39227  97.6029  90.8473 0002706 100.3860  12.7574 15.04522625114613
1 39227U 13042A   15267.24881942  .00000245  00000-0  21813-4 0  9992
2 39227  97.6026  91.2400 0002707  99.5113  15.5248 15.04521925114673
1 39227U 13042A   15267.38209759  .00000220  00000-0  19982-4 0  9994
2 39227  97.6027  91.3711 0002711  99.3690  17.0850 15.04521786114696
1 39227U 13042A   15267.71726684  .00000184  00000-0  17440-4 0  9998
2 39227  97.6027  91.7012 0002738  99.3193  31.3650 15.04521671114747
1 39227U 13042A   15267.84708514  .00000166  00000-0  16147-4 0  9997
2 39227  97.6026  91.8289 0002741  98.9618  14.4128 15.04521595114763
1 39227U 13042A   15268.57093567  .00000051  00000-0  79576-5 0  9992
2 39227  97.6025  92.5410 0002723  98.2036 333.2816 15.04520883114870
1 39227U 13042A   15268.84476508  .00000034  00000-0  67111-5 0  9995
2 39227  97.6024  92.8105 0002723  97.6494  16.0407 15.04520825114917
1 39227U 13042A   15269.24410067 -.00000031  00000-0  20816-5 0  9997
2 39227  97.6023  93.2032 0002702  95.1350  20.1058 15.04520343114970
1 39227U 13042A   15269.56866193 -.00000055  00000-0  39984-6 0  9990
2 39227  97.6023  93.5227 0002664  94.9151 337.1363 15.04520265115022
1 39227U 13042A   15269.84245454 -.00000052  00000-0  60899-6 0  9998
2 39227  97.6021  93.7921 0002672  94.2621  19.7956 15.04520335115060
1 39227U 13042A   15270.04989079 -.00000059  00000-0  10778-6 0  9998
2 39227  97.6021  93.9962 0002703  94.6048  62.2804 15.04520316115096
1 39227U 13042A   15270.84020914 -.00000036  00000-0  17445-5 0  9992
2 39227  97.6018  94.7739 0002648  92.9198  21.8630 15.04520578115210
1 39227U 13042A   15271.23935067 -.00000051  00000-0  66418-6 0  9992
2 39227  97.6015  95.1664 0002640  92.4859  22.8001 15.04520448115275
1 39227U 13042A   15271.56483319 -.00000022  00000-0  27064-5 0  9997
2 39227  97.6014  95.4867 0002595  92.9643 344.1217 15.04520786115327
1 39227U 13042A   15271.83951715  .00000029  00000-0  63435-5 0  9995
2 39227  97.6012  95.7570 0002575  92.1143  31.8042 15.04521187115360
1 39227U 13042A   15272.23719130  .00000023  00000-0  59133-5 0  9997
2 39227  97.6010  96.1479 0002521  90.3073  26.1715 15.04521142115426
1 39227U 13042A   15272.56390645  .00000051  00000-0  79678-5 0  9996
2 39227  97.6009  96.4694 0002490  89.3714 355.5791 15.04521489115473
1 39227U 13042A   15272.83728414  .00000099  00000-0  11344-4 0  9992
2 39227  97.6007  96.7384 0002469  88.4860  36.2269 15.04521903115517
1 39227U 13042A   15273.23402192  .00000088  00000-0  10592-4 0  9991
2 39227  97.6007  97.1285 0002456  88.8778  23.3292 15.04521895115579
1 39227U 13042A   15273.56137956  .00000100  00000-0  11469-4 0  9999
2 39227  97.6006  97.4505 0002372  88.3807 355.7769 15.04522210115620
1 39227U 13042A   15273.83486581  .00000123  00000-0  13056-4 0  9999
2 39227  97.6004  97.7196 0002348  87.0683  37.4393 15.04522488115666
1 39227U 13042A   15274.23232943  .00000120  00000-0  12848-4 0  9990
2 39227  97.6004  98.1106 0002343  86.8569  29.0756 15.04522616115727
1 39227U 13042A   15274.55931131  .00000144  00000-0  14605-4 0  9999
2 39227  97.6003  98.4321 0002275  87.4745 358.3767 15.04523063115777
1 39227U 13042A   15274.89553563  .00000182  00000-0  17321-4 0  9995
2 39227  97.6002  98.7629 0002276  85.6563  20.1406 15.04523529115826
1 39227U 13042A   15275.22466358  .00000165  00000-0  16100-4 0  9993
2 39227  97.6003  99.0866 0002297  87.4620 359.8671 15.04523493115872
1 39227U 13042A   15275.55701759  .00000127  00000-0  13372-4 0  9992
2 39227  97.6004  99.4137 0002285  87.2361 359.0857 15.04523287115920
1 39227U 13042A   15275.89438444  .00000109  00000-0  12079-4 0  9990
2 39227  97.6003  99.7454 0002233  85.7707  26.6773 15.04523186115971
1 39227U 13042A   15276.22271208  .00000062  00000-0  87333-5 0  9995
2 39227  97.6002 100.0683 0002197  85.6975   3.9470 15.04522806116022
1 39227U 13042A   15276.55451286 -.00000134  00000-0 -52994-5 0  9994
2 39227  97.6003 100.3951 0002205  87.3705 358.2586 15.04520865116076
1 39227U 13042A   15276.89638354 -.00000231  00000-0 -12227-4 0  9996
2 39227  97.6002 100.7310 0002179  89.5047  46.6232 15.04519904116125
1 39227U 13042A   15277.22433005 -.00000355  00000-0 -21049-4 0  9999
2 39227  97.6003 101.0539 0002147  89.0367  22.2163 15.04518619116178
1 39227U 13042A   15277.55211669 -.00000417  00000-0 -25471-4 0  9997
2 39227  97.6005 101.3763 0002149  89.8170 355.6998 15.04517897116226
1 39227U 13042A   15277.89343387 -.00000476  00000-0 -29701-4 0  9992
2 39227  97.6004 101.7121 0002148  90.5404  42.4798 15.04517240116271
1 39227U 13042A   15278.22173880 -.00000497  00000-0 -31218-4 0  9998
2 39227  97.6006 102.0352 0002191  90.4044  19.6863 15.04516852116323
1 39227U 13042A   15278.54971442 -.00000474  00000-0 -29573-4 0  9999
2 39227  97.6008 102.3578 0002062  89.7985 355.5842 15.04516999116376
1 39227U 13042A   15278.88687988 -.00000467  00000-0 -29101-4 0  9994
2 39227  97.6007 102.6897 0002067  88.8431  21.5735 15.04516941116427
1 39227U 13042A   15279.21527384 -.00000443  00000-0 -27343-4 0  9995
2 39227  97.6009 103.0125 0002076  89.1901 358.7813 15.04516984116478
1 39227U 13042A   15279.54730507 -.00000439  00000-0 -27070-4 0  9996
2 39227  97.6010 103.3392 0002048  88.4269 356.7861 15.04516862116529
1 39227U 13042A   15279.88458584 -.00000426  00000-0 -26117-4 0  9992
2 39227  97.6011 103.6711 0002031  87.3168  23.5515 15.04516719116577
1 39227U 13042A   15280.54490472 -.00000463  00000-0 -28761-4 0  9997
2 39227  97.6014 104.3210 0002073  87.5209 357.5599 15.04515810116670
1 39227U 13042A   15280.88192663 -.00002041  00000-0 -14154-3 0  9999
2 39227  97.6023 104.6533 0002095  92.8788  16.4486 15.04510374116728
1 39227U 13042A   15281.21060628 -.00001149  00000-0 -77822-4 0  9992
2 39227  97.6025 104.9770 0002169  91.4234 357.0017 15.04512104116771
1 39227U 13042A   15281.54263382  .00000718  00000-0  55544-4 0  9996
2 39227  97.6023 105.3039 0002131  91.3791 354.2740 15.04517373116829
1 39227U 13042A   15281.87960791  .00001784  00000-0  13169-3 0  9990
2 39227  97.6023 105.6356 0002143  88.9032  20.7523 15.04521170116876
1 39227U 13042A   15282.21241067  .00001463  00000-0  10880-3 0  9998
2 39227  97.6024 105.9636 0002198  92.8451  18.2293 15.04520882116921
1 39227U 13042A   15282.54019557  .00001554  00000-0  11523-3 0  9997
2 39227  97.6026 106.2860 0002206  92.5864 352.7510 15.04522466116974
1 39227U 13042A   15282.87729520  .00001539  00000-0  11418-3 0  9997
2 39227  97.6025 106.6177 0002205  92.2410  17.7785 15.04523559117024
